locationID,userID,houseNumber,street,city,country,zipcode
1,549,93,Grayhawk,"Uthai Thani",Thailand,81140
2,453,156,Larry,Pirojpur,Bangladesh,1811
3,241,194,Carioca,"Khuean Ubonrat",Thailand,93180
4,52,173,Farragut,"Phibun Mangsahan",Thailand,34110
5,802,21,Paget,"Nai Harn",Thailand,40330
6,504,142,Northridge,Yarang,Thailand,94160
7,683,99,Hauk,"Waeng Yai",Thailand,40330
8,5,92,Fordem,"Don Mueang",Thailand,10220
9,538,47,"Autumn Leaf","Don Chedi",Thailand,72170
10,45,161,Stuart,"Chon Buri",Thailand,24120
11,49,170,Vidon,"Lom Kao",Thailand,67120
12,955,164,Blackbird,"Noen Maprang",Thailand,65190
13,238,91,Dryden,"Na Wa",Thailand,48180
14,644,119,Independence,"Khao Yoi",Thailand,76140
15,529,187,Scott,"Hang Dong",Thailand,50230
16,815,58,Manitowish,Saidpur,Bangladesh,5311
17,732,124,Shoshone,"Wang Noi",Thailand,13170
18,622,102,Transport,Shibganj,Bangladesh,2231
19,432,14,Truax,"Krathum Baen",Thailand,74110
20,474,53,Spohn,"Sao Hai",Thailand,18160
21,360,198,Sage,"Krasae Sin",Thailand,90270
22,325,153,Corscot,"Mae Wang",Thailand,50360
23,548,122,Iowa,"Bang Ban",Thailand,13250
24,371,134,Bellgrove,Pong,Thailand,56140
25,927,12,"Maple Wood",Morrelgonj,Bangladesh,3807
26,113,25,Tomscot,Song,Thailand,54120
27,548,9,1st,Sirindhorn,Thailand,65150
28,414,162,"Del Sol",Bardiyā,Nepal,NULL
29,119,4,2nd,Lakshmīpur,Bangladesh,1553
30,7,88,Arizona,"Bang Sao Thong",Thailand,10560
31,264,87,Erie,"Den Chai",Thailand,54140
32,852,143,Heffernan,"Sam Ngam",Thailand,66140
33,702,83,"Golf View","Don Tan",Thailand,49120
34,673,112,Kenwood,"Ban Dung",Thailand,41190
35,177,67,Commercial,"Nong Khai",Thailand,48130
36,388,114,Logan,Phultala,Bangladesh,9210
37,851,12,Stoughton,Bājitpur,Bangladesh,2338
38,755,82,Brown,"Den Chai",Thailand,54140
39,136,38,Maple,Rāipur,Bangladesh,3723
40,968,73,Russell,"Pak Kret",Thailand,11120
41,736,190,"Buena Vista",Gafargaon,Bangladesh,2234
42,779,168,Steensland,"Pak Phayun",Thailand,93120
43,720,138,Northfield,Tamot,Thailand,93160
44,92,146,Bunting,Uthai,Thailand,13210
45,826,177,Manitowish,Nowlamary,Bangladesh,3731
46,235,71,Clove,"Nong Hin",Thailand,10250
47,837,159,Express,Nārāyanganj,Bangladesh,1414
48,508,189,Eliot,"Bang Racham",Thailand,16130
49,115,82,Lawn,"Pa Mok",Thailand,14130
50,627,108,Killdeer,"Nam Som",Thailand,41210
51,322,143,Knutson,Mehendiganj,Bangladesh,6431
52,795,148,American,Nageswari,Bangladesh,4520
53,253,101,Monument,"Maha Sarakham",Thailand,90160
54,99,40,"Ronald Regan","Phatthana Nikhom",Thailand,53230
55,368,19,Burrows,Senangkhanikhom,Thailand,10290
56,349,157,Brentwood,Trang,Thailand,30110
57,96,52,Lerdahl,Pātan,Nepal,NULL
58,916,40,Becker,"Phlapphla Chai",Thailand,10800
59,593,163,Crowley,"Kao Liao",Thailand,60230
60,118,117,Evergreen,"Bang Pakong",Thailand,24130
61,440,152,Dawn,"Uthai Thani",Thailand,26000
62,430,14,Columbus,Dhaka,Bangladesh,1312
63,315,117,2nd,"Wiset Chaichan",Thailand,84280
64,338,101,5th,"Wachira Barami",Thailand,45250
65,157,127,Warrior,"Si Prachan",Thailand,72140
66,975,100,"Park Meadow",Phunphin,Thailand,84130
67,50,62,Delaware,"Pa Kham",Thailand,30170
68,930,108,Ruskin,"Hat Yai",Thailand,90110
69,631,43,Donald,"Non Suwan",Thailand,31110
70,958,197,Mayfield,Wichit,Thailand,83120
71,155,145,"Little Fleur","Pom Prap Sattru Phai",Thailand,10100
72,123,143,"Bunker Hill","Pho Thong",Thailand,14120
73,815,83,Granby,"Chai Badan",Thailand,15130
74,917,37,Ridgeway,"Phan Thong",Thailand,20160
75,662,181,Pearson,Rangpur,Bangladesh,5470
76,131,122,Commercial,"Hang Dong",Thailand,50230
77,498,147,Manitowish,Rājshāhi,Bangladesh,6100
78,91,66,Surrey,"Khlong Luang",Thailand,12120
79,282,161,"Fair Oaks",Saidpur,Bangladesh,5311
80,551,131,Cottonwood,Phatthalung,Thailand,73130
81,258,168,Bellgrove,"Chang Klang",Thailand,84240
82,167,99,"Del Sol","Wang Muang",Thailand,18220
83,70,95,Oakridge,"Chai Badan",Thailand,15130
84,362,138,Eastlawn,Trat,Thailand,54150
85,482,5,Marcy,Janakpur,Nepal,NULL
86,61,66,Bultman,"Nakhon Nayok",Thailand,26120
87,98,72,Westerfield,"Thung Khru",Thailand,10140
88,984,150,"High Crossing","Samut Sakhon",Thailand,74000
89,578,97,Goodland,"R S",India,395003
90,526,177,Browning,"Nam Kliang",Thailand,33130
91,664,118,Lien,Thākurgaon,Bangladesh,1341
92,26,22,Acker,"Bang Sai",Thailand,13270
93,78,88,Judy,"Nakhon Luang",Thailand,13260
94,211,135,Comanche,"Bang Krathum",Thailand,65110
95,331,118,Gale,"Ban Mo",Thailand,18130
96,788,131,Bashford,Mukdahan,Thailand,49160
97,66,180,Porter,"Kham Sakae Saeng",Thailand,30290
98,29,139,Arapahoe,"Chiang Yuen",Thailand,44160
99,103,191,Hansons,Phonphisai,Thailand,43120
100,611,106,Mccormick,"Chaloem Phra Kiat",Thailand,30370
101,19,146,Ruskin,Shibganj,Bangladesh,2231
102,792,52,South,"Na Di",Thailand,25220
103,104,107,Arapahoe,"Pa Tio",Thailand,35150
104,202,151,Rusk,"San Pa Tong",Thailand,50120
105,134,135,"American Ash","Tha Bo",Thailand,43110
106,848,42,Schlimgen,"Bo Kluea",Thailand,13190
107,624,77,Kenwood,"Fak Tha",Thailand,53160
108,866,102,Fuller,Bhāndāria,Bangladesh,8550
109,988,102,Truax,"Bang Lamung",Thailand,20150
110,990,106,Bluejay,"Si Mahosot",Thailand,25190
111,491,71,Corscot,"Si Khoraphum",Thailand,67160
112,414,156,Dryden,Mehendiganj,Bangladesh,6431
113,220,139,Rowland,Samphanthawong,Thailand,10100
114,620,187,Pierstorff,"Chaloem Phra Kiat",Thailand,40250
115,898,48,Oakridge,"Kaset Sombun",Thailand,36120
116,701,91,Porter,"Si Racha",Thailand,20110
117,657,13,Morning,Netrakona,Bangladesh,5405
118,469,63,Spohn,"Chiang Yuen",Thailand,44160
119,863,108,"Prairie Rose","Na Klang",Thailand,39170
120,352,10,"Lighthouse Bay","Sam Phran",Thailand,73110
121,467,177,Pankratz,"Wang Sombun",Thailand,27250
122,391,91,Burrows,"Hang Dong",Thailand,50230
123,501,73,Hoard,"Kut Chap",Thailand,30430
124,312,164,Iowa,"Lom Kao",Thailand,67120
125,145,185,Sachtjen,"Chum Phae",Thailand,40130
126,980,178,Bartillon,"Suphan Buri",Thailand,96120
127,132,97,Prairieview,"Ban Nong Wua So",Thailand,21140
128,541,90,Division,"Nong Saeng",Thailand,41340
129,989,13,Duke,"Bang Rak",Thailand,10500
130,69,58,Clemons,"Kaset Wisai",Thailand,45150
131,84,94,Morning,Jomsom,Nepal,NULL
132,31,6,Dexter,"Wang Nam Yen",Thailand,27120
133,967,19,Waywood,Thoen,Thailand,52160
134,122,10,Division,"Khun Han",Thailand,33150
135,514,22,Kropf,"Nong Hi",Thailand,45140
136,163,4,Anderson,"Pho Thale",Thailand,66130
137,589,194,Messerschmidt,"Ko Samui",Thailand,84140
138,979,175,Pennsylvania,"Tha Luang",Thailand,15130
139,205,198,Talmadge,"Plaeng Yao",Thailand,48120
140,267,139,Dayton,"Phra Phutthabat",Thailand,18120
141,315,195,Fieldstone,"Bang Kho Laem",Thailand,10130
142,974,169,Hanson,Loei,Thailand,42000
143,238,55,Marcy,"Yang Chum Noi",Thailand,33190
144,180,156,Comanche,Manorom,Thailand,17110
145,441,27,Alpine,"Kut Rang",Thailand,81140
146,870,83,Chinook,Chilmāri,Bangladesh,5631
147,373,10,Montana,"Mae Sot",Thailand,63110
148,154,38,Fuller,"Uthai Thani",Thailand,81140
149,736,10,Iowa,Phichit,Thailand,18000
150,993,171,Cody,"Nong Hin",Thailand,10250
151,241,173,Eastlawn,"Don Tan",Thailand,49120
152,114,196,Elgar,"Ban Phaeo",Thailand,74120
153,696,150,Acker,Rayong,Thailand,21000
154,403,36,Vidon,"Uttar Char Fasson",Bangladesh,8701
155,657,69,Gina,"Pa Kham",Thailand,30170
156,559,85,Petterle,"Khon San",Thailand,36180
157,926,52,Kropf,Sahatsakhan,Thailand,46140
158,763,195,Dunning,"Mancha Khiri",Thailand,40160
159,455,181,"Lake View","Wang Saphung",Thailand,42130
160,180,8,Main,"Tha Mai",Thailand,22120
161,574,68,Dixon,Dārchulā,Nepal,NULL
162,547,127,Sachtjen,"Tha Yang",Thailand,76130
163,253,87,Graedel,"Chai Nat",Thailand,17000
164,221,107,Schlimgen,"Pa Kham",Thailand,30170
165,806,140,Eliot,Pātan,Nepal,NULL
166,665,132,Vernon,Narsingdi,Bangladesh,1605
167,409,25,Fuller,"Ban Mai",Thailand,80000
168,782,6,Warrior,"Pluak Daeng",Thailand,21140
169,680,120,Vernon,"Pak Phayun",Thailand,93120
170,231,9,Hooker,"Sop Pong",Thailand,30270
171,649,28,East,Sakhipur,Bangladesh,1950
172,732,178,Mcguire,Sirindhorn,Thailand,65150
173,777,2,Hallows,Rangpur,Bangladesh,5470
174,954,192,Debra,"Khon Buri",Thailand,30250
175,808,170,Raven,Siao,Thailand,84120
176,664,12,"Oak Valley","Kut Chap",Thailand,30430
177,434,165,Drewry,"Kham Sakae Saeng",Thailand,30290
178,93,120,"Weeping Birch",Dhaka,Bangladesh,1312
179,231,118,Knutson,"Bang Kruai",Thailand,11130
180,854,129,Dorton,"Na Khu",Thailand,70170
181,252,60,Eliot,Burhānuddin,Bangladesh,4743
182,442,180,Banding,"Chok Chai",Thailand,30190
183,506,187,Thompson,"Bueng Kan",Thailand,34140
184,759,150,Thackeray,Selaphum,Thailand,33150
185,723,120,6th,Phuket,Thailand,83120
186,35,54,"Eagle Crest",Pattani,Thailand,57000
187,380,165,Tomscot,"Amnat Charoen",Thailand,70160
188,829,143,Badeau,"Kaset Sombun",Thailand,36120
189,638,177,Towne,"Chiang Yuen",Thailand,44160
190,745,176,Beilfuss,"Pa Phayom",Thailand,91130
191,494,171,Golf,"Bamnet Narong",Thailand,36160
192,653,163,"Fair Oaks","Sawang Daen Din",Thailand,47110
193,1000,81,Upham,Bīrganj,Nepal,NULL
194,397,186,Grayhawk,Mukdahan,Thailand,49160
195,589,126,Service,"Sawang Daen Din",Thailand,47110
196,583,109,Pawling,"Pak Phanang",Thailand,80140
197,718,200,Rutledge,"Ban Tak",Thailand,63120
198,347,82,Iowa,"Khueang Nai",Thailand,64150
199,578,78,Pleasure,"Taling Chan",Thailand,10170
200,327,152,Marcy,Tungipāra,Bangladesh,8121
201,100,121,Texas,"Na Chueak",Thailand,44170
202,696,31,Montana,"Na Chaluai",Thailand,34280
203,510,45,Springs,"Wang Thonglang",Thailand,52140
204,591,177,Utah,Panchagarh,Bangladesh,8530
205,522,163,Novick,"Kaeng Khoi",Thailand,18110
206,113,61,Kinsman,Phichai,Thailand,53120
207,705,173,Aberg,"Kao Liao",Thailand,60230
208,564,102,Forster,"Na Thawi",Thailand,90160
209,334,184,Lerdahl,"Ban Na",Thailand,26110
210,354,141,Forest,Phetchabun,Thailand,45110
211,836,131,"Pepper Wood","Nong Kung Si",Thailand,46220
212,757,198,Merchant,"Nakhon Phanom",Thailand,48000
213,491,141,Crowley,Thepharak,Thailand,85130
214,992,60,"Stone Corner","Lang Suan",Thailand,86110
215,621,172,Farmco,Bhola,Bangladesh,3633
216,657,69,Washington,Mirzāpur,Bangladesh,1945
217,640,9,"Twin Pines","Ban Dung",Thailand,41190
218,43,66,Porter,Pakham,Thailand,92000
219,202,198,Karstens,"Wang Hin",Thailand,33270
220,224,89,"Old Gate",Aranyaprathet,Thailand,27120
221,532,193,Sullivan,"Wang Noi",Thailand,13170
222,32,173,Tomscot,Uttaradit,Thailand,71120
223,577,199,Mitchell,"Phon Phisai",Thailand,43120
224,636,186,Dixon,Klaeng,Thailand,21110
225,108,58,Steensland,"Phatthana Nikhom",Thailand,53230
226,461,24,Tomscot,"Nai Harn",Thailand,40330
227,467,174,"Summer Ridge",Lākshām,Bangladesh,3571
228,944,119,Hoffman,"Sam Chuk",Thailand,72130
229,738,25,Iowa,"Mae Lan",Thailand,94180
230,892,65,Butternut,Pātan,Nepal,NULL
231,35,93,Declaration,Lalmanirhat,Bangladesh,5510
232,744,113,Bay,"Non Sung",Thailand,30160
233,372,54,Harbort,"Pathum Thani",Thailand,90110
234,587,11,"Doe Crossing","Nakhon Chai Si",Thailand,40160
235,431,131,"Holy Cross","Tha Muang",Thailand,71110
236,282,96,Butternut,"Ban Haet",Thailand,10700
237,72,200,Mandrake,"Nakhon Si Thammarat",Thailand,57210
238,230,171,Packers,"Mueang Suang",Thailand,45220
239,745,146,Northridge,Phunphin,Thailand,84130
240,184,188,Southridge,Manikchari,Bangladesh,7460
241,189,22,Mosinee,"Bang Saphan",Thailand,77140
242,867,60,Miller,Phultala,Bangladesh,9210
243,154,152,Hoepker,Wichit,Thailand,83120
244,370,198,Vahlen,"Dong Charoen",Thailand,66210
245,836,116,Gulseth,"Thawi Watthana",Thailand,62180
246,491,93,American,"Don Tan",Thailand,49120
247,127,47,Shopko,Phatthaya,Thailand,72160
248,352,103,Nobel,"Tha Muang",Thailand,71110
249,573,169,Bay,Dārchulā,Nepal,NULL
250,208,4,Spohn,Nan,Thailand,55000
251,329,102,Toban,Sapphaya,Thailand,17140
252,662,84,Menomonie,"Nong Khae",Thailand,18140
253,384,179,Crownhardt,"Nong Phok",Thailand,45210
254,850,188,Merry,"Ban Muang",Thailand,47140
255,364,99,Vahlen,"Waeng Yai",Thailand,40330
256,275,168,Transport,"Yang Chum Noi",Thailand,33190
257,177,114,Nancy,Phichit,Thailand,66140
258,803,40,Vera,"Non Sang",Thailand,39140
259,786,35,Havey,"Bang Mun Nak",Thailand,66120
260,612,60,Hermina,"Non Sung",Thailand,30160
261,361,191,Longview,"Kham Sakae Saeng",Thailand,30290
262,821,158,Moulton,Barisāl,Bangladesh,8206
263,278,191,Parkside,Ranot,Thailand,90140
264,597,100,Everett,Kathu,Thailand,83120
265,839,96,Mayfield,"Phayakkhaphum Phisai",Thailand,44110
266,357,15,Kipling,"Ban Phan Don",Thailand,41220
267,963,45,Havey,"Pak Phanang",Thailand,80140
268,712,167,"Summer Ridge","Phanna Nikhom",Thailand,47130
269,679,65,Comanche,Sattahip,Thailand,20180
270,350,83,Sage,"Lom Sak",Thailand,67110
271,916,38,Anniversary,"Samut Sakhon",Thailand,74000
272,842,65,Vahlen,"Soeng Sang",Thailand,30330
273,588,166,Commercial,"Non Sung",Thailand,30160
274,349,102,"Pine View",Narathiwat,Thailand,90220
275,817,98,Cottonwood,"Chiang Yuen",Thailand,44160
276,274,169,Corscot,"Mueang Nonthaburi",Thailand,11120
277,934,162,Ryan,"Ban Nong Wua So",Thailand,21140
278,321,49,Reinke,"Thai Charoen",Thailand,55000
279,247,119,Fairfield,Amphawa,Thailand,75110
280,747,168,Prairieview,Lakshmīpur,Bangladesh,1553
281,751,16,Loeprich,"Bo Kluea",Thailand,13190
282,657,3,Stuart,Butwāl,Nepal,NULL
283,727,164,Memorial,"Ubon Ratchathani",Thailand,67150
284,616,200,Morning,Sirindhorn,Thailand,65150
285,154,78,Everett,Ratchathewi,Thailand,11130
286,827,38,Eastlawn,Jessore,Bangladesh,9413
287,842,122,Johnson,"Sop Moei",Thailand,58110
288,760,109,Commercial,"Phu Sang",Thailand,63120
289,225,28,Stephen,Panchagarh,Bangladesh,8530
290,511,125,"Crest Line",Sathon,Thailand,10130
291,760,112,Victoria,"Phra Nakhon Si Ayutthaya",Thailand,13120
292,506,77,Graceland,"Mueang Nonthaburi",Thailand,11120
293,144,100,Corben,Dipayal,Nepal,NULL
294,648,81,Annamark,Kālīganj,Bangladesh,1910
295,801,75,Loftsgordon,Kranuan,Thailand,40170
296,530,36,Shasta,"Chai Nat",Thailand,17000
297,492,116,Shasta,Phunphin,Thailand,84130
298,279,133,Colorado,"Bang Klam",Thailand,90110
299,214,93,Roth,"Bang Krathum",Thailand,65110
300,122,155,Texas,Dusit,Thailand,10300
301,635,38,"Briar Crest","Na Wa",Thailand,48180
302,713,60,Northwestern,"Krasae Sin",Thailand,90270
303,543,69,Pearson,"Bang Yai",Thailand,11140
304,528,109,Fulton,"Bang Krathum",Thailand,65110
305,498,179,Farwell,"Mae Charim",Thailand,55170
306,7,159,4th,Bhāndāria,Bangladesh,8550
307,578,110,Roth,"Ko Si Chang",Thailand,55120
308,713,32,Judy,Lamphun,Thailand,51000
309,76,102,Packers,"Bua Yai",Thailand,30120
310,849,78,Chinook,"Ban Bang Kadi Pathum Thani",Thailand,82160
311,893,89,"New Castle",Kranuan,Thailand,40170
312,318,181,Lakewood,"Tan Sum",Thailand,34330
313,588,192,Vernon,"Pathum Thani",Thailand,53140
314,11,181,Westend,"Thung Khru",Thailand,10140
315,715,123,Becker,Loei,Thailand,42000
316,550,25,Elmside,"Pār Naogaon",Bangladesh,9202
317,459,172,Emmet,Burhānuddin,Bangladesh,4743
318,589,196,Prentice,Thoen,Thailand,52160
319,360,172,"Lakewood Gardens",Thākurgaon,Bangladesh,1341
320,555,172,Westridge,"Sam Chuk",Thailand,72130
321,456,83,Packers,Sena,Thailand,13110
322,263,87,Homewood,Mathba,Bangladesh,8566
323,595,84,Spenser,"Ban Huai Thalaeng",Thailand,30240
324,891,112,Waubesa,Phatthaya,Thailand,72160
325,534,62,Ohio,"Khanu Woralaksaburi",Thailand,62130
326,466,44,Lyons,"Ban Huai Thalaeng",Thailand,30240
327,453,180,"Village Green","Khlong Yai",Thailand,23110
328,503,40,Daystar,Lampang,Thailand,52000
329,14,69,"Buena Vista","Kut Chap",Thailand,14150
330,79,91,Sunnyside,Seka,Thailand,43150
331,310,63,Birchwood,"Khon Buri",Thailand,30250
332,936,113,Lotheville,"Bang Ban",Thailand,13250
333,270,87,Grim,"Noen Maprang",Thailand,65190
334,971,54,"Eagle Crest","Bang Racham",Thailand,16130
335,927,103,Arapahoe,"Huai Yot",Thailand,92130
336,258,153,"New Castle",Seka,Thailand,43150
337,898,154,Hansons,Phatthaya,Thailand,72160
338,228,33,Stoughton,"Roi Et",Thailand,45000
339,177,52,Riverside,"Ban Talat Yai",Thailand,83120
340,8,97,Corry,"Huai Yot",Thailand,92130
341,615,37,Ilene,"Nong Yasai",Thailand,72240
342,424,190,Delaware,"Wang Nam Yen",Thailand,27120
343,283,36,Stephen,"Ban Dan",Thailand,31000
344,741,196,Fisk,Saidpur,Bangladesh,5311
345,86,163,Cardinal,"Chaloem Phra Kiat",Thailand,30370
346,728,137,Monument,"Ron Phibun",Thailand,80130
347,408,150,Rieder,"Wachira Barami",Thailand,45250
348,102,97,Moulton,"Chon Daen",Thailand,67150
349,563,159,Sheridan,Sarankhola,Bangladesh,9330
350,969,154,Harper,"Pueai Noi",Thailand,40340
351,990,188,"Valley Edge","Nong Khai",Thailand,48130
352,201,141,Rowland,"Hat Yai",Thailand,90110
353,796,153,Main,"Ban Phai",Thailand,40110
354,635,96,Melody,Nepalgunj,Nepal,NULL
355,952,71,Pennsylvania,Bherāmāra,Bangladesh,7042
356,586,145,Oxford,"Si Satchanalai",Thailand,64130
357,960,110,Hoepker,"Tha Maka",Thailand,71120
358,369,139,"Forest Dale",Yaring,Thailand,94150
359,174,112,Warner,Dusit,Thailand,10300
360,794,116,Melvin,"Bang Bua Thong",Thailand,11110
361,139,95,Columbus,"Roi Et",Thailand,45000
362,646,112,"Pepper Wood",Trang,Thailand,30110
363,385,178,Jackson,"Taling Chan",Thailand,10170
364,632,187,Nevada,Shibganj,Bangladesh,2231
365,600,151,Glendale,Kushtia,Bangladesh,7052
366,267,62,Bashford,"Santi Suk",Thailand,61150
367,989,133,Cardinal,"Bang Pa-in",Thailand,13160
368,369,136,Summit,"Krathum Baen",Thailand,74110
369,857,95,Marcy,Sherpur,Bangladesh,5840
370,239,129,Duke,"Pathum Thani",Thailand,53140
371,536,60,Columbus,Borabue,Thailand,44130
372,640,47,Sunbrook,Narail,Bangladesh,5260
373,227,125,Emmet,Ishurdi,Bangladesh,3562
374,426,25,"Pine View","Ta Phraya",Thailand,27180
375,1,74,Harbort,Nawābganj,Bangladesh,6301
376,527,152,Jenna,Sherpur,Bangladesh,5840
377,102,183,"Doe Crossing","Pa Bon",Thailand,93170
378,847,52,Kim,"Nong Bua Daeng",Thailand,36210
379,437,175,Dunning,"Phaya Thai",Thailand,10400
380,487,49,Moland,Chachoengsao,Thailand,30330
381,312,197,Jana,Kantharalak,Thailand,33110
382,136,64,Vahlen,Badarganj,Bangladesh,5430
383,492,149,Eastlawn,Lahān,Nepal,NULL
384,992,154,Pond,"Den Chai",Thailand,54140
385,74,57,Artisan,"Ban Tak",Thailand,63120
386,318,49,"Prairie Rose","Bang Bo",Thailand,10560
387,227,80,Talisman,"Bang Kruai",Thailand,11130
388,408,179,Daystar,"Nong Bua Lamphu",Thailand,96130
389,452,18,Tony,Dhankutā,Nepal,NULL
390,574,75,Ruskin,Phichai,Thailand,53120
391,474,98,Porter,"Sing Buri",Thailand,16150
392,371,108,Ramsey,Ongkharak,Thailand,55160
393,15,159,Hazelcrest,"Bang Nam Priao",Thailand,44130
394,963,43,Reinke,"Bang Pakong",Thailand,24130
395,419,111,Gale,"Phu Luang",Thailand,42230
396,685,197,Eggendart,"Pak Thong Chai",Thailand,30150
397,39,156,American,"Khuan Don",Thailand,48150
398,543,178,"Lakewood Gardens","Na Tan",Thailand,37180
399,292,115,Corscot,Trang,Thailand,30110
400,856,111,Dawn,"Pran Buri",Thailand,77120
401,854,84,Rusk,"Nikhom Phattana",Thailand,46240
402,10,189,Huxley,"Joypur Hāt",Bangladesh,1510
403,593,80,Sachs,"Lop Buri",Thailand,46110
404,703,92,Kinsman,"San Pa Tong",Thailand,50120
405,368,97,Randy,Yasothon,Thailand,35000
406,140,4,Fisk,"Khueang Nai",Thailand,64150
407,189,14,Main,"Taphan Hin",Thailand,66110
408,235,47,Kinsman,Kirtipur,Nepal,NULL
409,162,4,Coolidge,Shāhzādpur,Bangladesh,6773
410,435,33,Browning,Sadao,Thailand,56000
411,960,42,Declaration,Salaya,Thailand,13230
412,637,126,Onsgard,Selaphum,Thailand,33150
413,282,124,Alpine,"Mancha Khiri",Thailand,40160
414,22,138,Oriole,Mahendranagar,Nepal,NULL
415,278,175,Westridge,Sakhipur,Bangladesh,1950
416,424,58,Annamark,"Waeng Yai",Thailand,40330
417,533,21,Mendota,Satuek,Thailand,31150
418,145,84,Morning,"Ko Samui",Thailand,84140
419,723,166,Mesta,Phayao,Thailand,56000
420,785,18,"Village Green","R S",India,395003
421,600,113,Vernon,Chhātak,Bangladesh,4312
422,856,75,Acker,"Tan Sum",Thailand,34330
423,528,131,Farmco,"Phu Khiao",Thailand,36110
424,542,75,Jay,Comilla,Bangladesh,1981
425,27,123,Waywood,"Nong Bua Daeng",Thailand,36210
426,46,71,Bluestem,"Bang Pahan",Thailand,13220
427,661,173,Mitchell,"Bo Kluea",Thailand,13190
428,948,60,Toban,"Si Prachan",Thailand,72140
429,584,134,Washington,Bājitpur,Bangladesh,2338
430,802,55,Daystar,"Ban Na",Thailand,26110
431,325,58,Merchant,Tīkāpur,Nepal,NULL
432,606,170,Towne,Rattanawapi,Thailand,36190
433,856,28,Hauk,"Wang Nam Khiao",Thailand,55130
434,138,2,Roth,Thoen,Thailand,52160
435,77,61,"Burning Wood",Birātnagar,Nepal,NULL
436,343,160,Elmside,Klaeng,Thailand,21110
437,382,157,Towne,"Kaset Sombun",Thailand,36120
438,245,164,Hoepker,Banepa,Nepal,NULL
439,3,170,Badeau,"Amphoe Sikhiu",Thailand,30140
440,579,60,2nd,"Chum Phae",Thailand,40130
441,150,142,Clarendon,"Pār Naogaon",Bangladesh,9202
442,758,46,Dovetail,"Akat Amnuai",Thailand,47170
443,616,94,Dayton,"Mueang Suang",Thailand,45220
444,33,92,Mosinee,Sakhipur,Bangladesh,1950
445,456,32,Tennessee,Thoeng,Thailand,57160
446,701,81,Vera,Dipayal,Nepal,NULL
447,91,164,Steensland,"Lap Lae",Thailand,65160
448,920,50,Buhler,"Si Prachan",Thailand,72140
449,978,111,Orin,"Lom Sak",Thailand,67110
450,242,107,Toban,Betong,Thailand,95110
451,212,17,Nobel,Nepalgunj,Nepal,NULL
452,161,77,"Di Loreto",Satuek,Thailand,31150
453,922,114,Starling,Shibganj,Bangladesh,2231
454,889,11,Independence,"Bang Phae",Thailand,70160
455,101,13,Forster,"Non Sung",Thailand,30160
456,33,113,Service,Kamalasai,Thailand,46130
457,376,166,Beilfuss,Phonphisai,Thailand,43120
458,265,37,Southridge,Phutthaisong,Thailand,31120
459,474,123,Washington,"Kut Bak",Thailand,47180
460,693,101,Shopko,"Ban Na San",Thailand,84120
461,382,75,Dakota,Ranot,Thailand,90140
462,525,111,Daystar,"Phon Charoen",Thailand,43180
463,771,27,Erie,"Chaem Luang",Thailand,44110
464,266,138,Oriole,"Mueang Phuket",Thailand,83120
465,2,7,Becker,Lamphun,Thailand,51000
466,250,169,Dorton,Phrae,Thailand,54130
467,962,110,Sherman,Saraburi,Thailand,18190
468,832,32,Rockefeller,Khulna,Bangladesh,9242
469,984,73,Pond,Phetchaburi,Thailand,76150
470,296,24,Kipling,"Nong Bun Nak",Thailand,42130
471,900,188,Calypso,Tamot,Thailand,93160
472,58,24,Buell,"Suphan Buri",Thailand,44130
473,698,115,Kings,Sukhothai,Thailand,75120
474,969,55,Basil,Fatikchari,Bangladesh,4355
475,930,102,Walton,"Ban Muang",Thailand,47140
476,181,95,Rieder,"Tha Tako",Thailand,60160
477,639,74,Iowa,Bera,Bangladesh,6680
478,762,76,Ridgeway,"Suphan Buri",Thailand,44130
479,887,123,Loftsgordon,"Mae Charim",Thailand,55170
480,391,85,Spenser,Panaoti,Nepal,NULL
481,734,7,Gale,"Uthai Thani",Thailand,81140
482,773,108,Hazelcrest,Thepharak,Thailand,85130
483,342,68,Pankratz,"Kaset Sombun",Thailand,36120
484,280,85,Graedel,"Chai Badan",Thailand,15130
485,531,14,"Briar Crest","Ta Phraya",Thailand,27180
486,118,24,"John Wall","Bang Phlat",Thailand,11130
487,158,157,6th,Rāmganj,Bangladesh,3725
488,27,175,Sugar,"Kut Chap",Thailand,30430
489,57,75,Surrey,"Sathing Phra",Thailand,44150
490,457,85,Wayridge,"Taphan Hin",Thailand,66110
491,838,98,Bonner,"Ko Pha Ngan",Thailand,22110
492,208,32,Amoth,Bangkok,Thailand,11130
493,31,176,Nobel,"Ban Thaen",Thailand,36190
494,936,20,Corscot,Betong,Thailand,95110
495,390,121,Anhalt,"Bamnet Narong",Thailand,36160
496,911,50,Dunning,"Rat Burana",Thailand,10140
497,75,28,Hanover,"Nai Harn",Thailand,40330
498,748,23,Elmside,"Kae Dam",Thailand,44190
499,377,164,Northwestern,"Tha Mai",Thailand,22120
500,112,132,Harbort,Teknāf,Bangladesh,4762
501,432,118,Paget,"Prakhon Chai",Thailand,31140
502,346,43,Almo,"Non Suwan",Thailand,31110
503,111,159,Dennis,"Na Wa",Thailand,48180
504,282,8,Donald,"Chon Daen",Thailand,67150
505,764,106,Schurz,"Wang Noi",Thailand,13170
506,946,89,Oak,Jessore,Bangladesh,9413
507,919,184,"American Ash",Gaur,Nepal,NULL
508,596,55,Dakota,"Chiang Rai",Thailand,57000
509,558,4,Springs,Kranuan,Thailand,40170
510,28,72,School,Besisahar,Nepal,NULL
511,804,84,"Mariners Cove",Kalasin,Thailand,46000
512,600,192,"High Crossing",Phatthalung,Thailand,86000
513,863,176,Bowman,"Non Narai",Thailand,10160
514,966,66,Lukken,"Nam Som",Thailand,41210
515,872,56,Canary,Ratchaburi,Thailand,84180
516,958,80,Roxbury,"Pueai Noi",Thailand,40340
517,819,174,Evergreen,"Ban Rangsit",Thailand,55000
518,309,118,Annamark,"Ban Fang",Thailand,40270
519,370,64,Hagan,Sanom,Thailand,91130
520,554,33,Atwood,"Pathum Rat",Thailand,45190
521,391,16,Lien,"Ban Talat Yai",Thailand,83120
522,829,154,Independence,Ra-ngae,Thailand,96130
523,930,114,Rusk,Chaiyo,Thailand,14140
524,644,20,Pennsylvania,"Damnoen Saduak",Thailand,70130
525,439,77,Harper,"Sadar Bazar",India,281002
526,555,187,Erie,"Ban Chang",Thailand,21130
527,491,178,Elka,"Wang Sai Phun",Thailand,66180
528,124,43,Carey,Kālia,Bangladesh,7521
529,58,88,"Bunker Hill",Kishorganj,Bangladesh,5710
530,697,19,Graceland,"Bua Yai",Thailand,30120
531,423,48,Ruskin,"Tha Maka",Thailand,71120
532,698,57,Bowman,Hājīganj,Bangladesh,3832
533,277,132,Goodland,"Tha Ruea",Thailand,13130
534,230,29,Nevada,Kushtia,Bangladesh,7052
535,801,198,Scofield,"Phu Kam Yao",Thailand,23110
536,750,188,American,Chanthaburi,Thailand,10510
537,554,160,Lukken,"Ban Phue",Thailand,96130
538,443,194,Tomscot,"Su-ngai Kolok",Thailand,96120
539,68,140,"Briar Crest",Pābna,Bangladesh,6602
540,858,67,Farwell,"Khlong Sam Wa",Thailand,10240
541,593,38,Waywood,"Non Suwan",Thailand,31110
542,612,43,Vernon,"Sing Buri",Thailand,16150
543,938,191,Fallview,"Bo Phloi",Thailand,71160
544,790,80,Kipling,Sawankhalok,Thailand,64110
545,13,73,Lindbergh,"Ban Phan Don",Thailand,41220
546,156,125,Melrose,Phetchaburi,Thailand,76150
547,164,59,Ramsey,Samran,Thailand,46140
548,123,135,"Forest Dale","Si Sa Ket",Thailand,33140
549,819,68,Armistice,"Fak Tha",Thailand,53160
550,96,180,Surrey,"Kaset Wisai",Thailand,45150
551,985,36,Buhler,Gaur,Nepal,NULL
552,59,49,4th,"San Kamphaeng",Thailand,50130
553,858,90,Lyons,Bangkok,Thailand,11130
554,930,14,Clove,Aranyaprathet,Thailand,27120
555,4,67,Spaight,"Sung Noen",Thailand,30170
556,981,20,Maryland,"Khon Buri",Thailand,30250
557,977,63,Raven,Teknāf,Bangladesh,4762
558,356,141,Susan,"Ban Phue",Thailand,96130
559,322,165,"Old Shore","Phayuha Khiri",Thailand,60130
560,707,108,Trailsway,"Nong Muang Khai",Thailand,12140
561,351,179,Moose,"Lom Sak",Thailand,67110
562,442,30,Shelley,"Nong Khae",Thailand,18140
563,364,35,Heath,"Nong Ki",Thailand,31210
564,847,173,"Del Mar","Ko Pha Ngan",Thailand,22110
565,621,173,Schurz,Kantharalak,Thailand,33110
566,583,188,Corscot,Ongkharak,Thailand,55160
567,874,150,"Saint Paul","Ang Thong",Thailand,14000
568,654,55,Prentice,"Ban Haet",Thailand,10700
569,821,110,Westend,"Lop Buri",Thailand,46110
570,366,18,Graceland,Aranyaprathet,Thailand,27120
571,259,175,Bayside,Besisahar,Nepal,NULL
572,942,118,Manitowish,"Koh Tao",Thailand,10520
573,194,72,Anthes,Phichit,Thailand,18000
574,697,29,Reindahl,"Ban Khlong Bang Sao Thong",Thailand,10560
575,611,129,Artisan,Nālchiti,Bangladesh,8421
576,59,2,Texas,"Nikhom Kham Soi",Thailand,49130
577,324,52,Stang,"Santi Suk",Thailand,61150
578,68,13,Vermont,"Kaeng Khoi",Thailand,18110
579,274,111,Cambridge,"Warin Chamrap",Thailand,76110
580,484,36,Reinke,"Suan Luang",Thailand,52120
581,718,78,Myrtle,Birendranagar,Nepal,NULL
582,781,183,Donald,Narathiwat,Thailand,90220
583,445,199,Kipling,"Pak Chom",Thailand,42150
584,860,177,Harper,"Khun Han",Thailand,33150
585,719,65,Hagan,Yasothon,Thailand,35000
586,5,112,Ramsey,"Pa Sang",Thailand,51120
587,509,185,Garrison,"Pak Phanang",Thailand,80140
588,518,157,"Oak Valley","Hua Hin",Thailand,77110
589,841,164,Daystar,Nawābganj,Bangladesh,6301
590,599,41,Nobel,Kantharalak,Thailand,33110
591,668,23,"Glacier Hill","Mueang Phuket",Thailand,83120
592,503,182,Marquette,"Wang Chan",Thailand,21210
593,378,111,Wayridge,"Nong Khai",Thailand,48140
594,72,99,Arapahoe,"Trakan Phut Phon",Thailand,90120
595,944,64,Rowland,"Si Prachan",Thailand,72140
596,892,97,Parkside,"Bua Yai",Thailand,30120
597,134,128,Homewood,Jhingergācha,Bangladesh,7420
598,902,124,Artisan,Lalmanirhat,Bangladesh,5510
599,792,184,"Meadow Valley","Mae Sai",Thailand,57130
600,955,9,Surrey,Rājbirāj,Nepal,NULL
601,730,85,Merchant,Birātnagar,Nepal,NULL
602,937,180,Nova,Ilām,Nepal,NULL
603,484,150,Messerschmidt,"Wiang Chiang Rung",Thailand,57210
604,788,46,Kipling,Wichit,Thailand,83120
605,480,166,Buell,"Tha Wang Pha",Thailand,55140
606,719,59,"Blue Bill Park","Bang Rak",Thailand,10500
607,935,181,Burrows,"Phu Sang",Thailand,63120
608,350,110,"Doe Crossing","Nong Phai",Thailand,67140
609,253,63,Moland,"Kaeng Khoi",Thailand,18110
610,547,154,Eastlawn,Tungi,Bangladesh,1230
611,240,69,Maywood,Phultala,Bangladesh,9210
612,465,45,"Ridge Oak","Ubon Ratchathani",Thailand,67150
613,129,81,Mesta,"Lat Lum Kaeo",Thailand,12140
614,347,143,Swallow,"Sop Moei",Thailand,58110
615,436,194,Hoepker,Sahatsakhan,Thailand,46140
616,397,197,Rutledge,Rāipur,Bangladesh,3723
617,930,105,Fisk,"Roi Et",Thailand,45000
618,173,96,Sachtjen,"Lue Amnat",Thailand,20270
619,875,97,Kingsford,Gaurnadi,Bangladesh,8242
620,223,107,Messerschmidt,"Phu Sang",Thailand,63120
621,848,6,Lukken,Dhaka,Bangladesh,1312
622,873,79,Emmet,Krabi,Thailand,58120
623,211,2,Maryland,"Na Muen",Thailand,55180
624,998,163,Prentice,Bāglung,Nepal,NULL
625,93,199,Hintze,Habiganj,Bangladesh,7903
626,58,67,Mccormick,"Bhairab Bāzār",Bangladesh,3521
627,89,104,Aberg,Pakham,Thailand,92000
628,715,143,Lindbergh,Barisāl,Bangladesh,8206
629,336,169,Rieder,Lamduan,Thailand,76000
630,115,77,Goodland,"Koh Tao",Thailand,10520
631,488,58,Cottonwood,"Bang Krathum",Thailand,65110
632,901,125,Utah,"Ban Haet",Thailand,10700
633,740,122,Village,"Non Suwan",Thailand,31110
634,221,29,Jay,"Phra Pradaeng",Thailand,10130
635,659,26,Onsgard,Butwāl,Nepal,NULL
636,195,181,Sutteridge,"Mueang Suang",Thailand,45220
637,84,6,Drewry,"Wang Noi",Thailand,13170
638,290,29,Hudson,"Si Khoraphum",Thailand,67160
639,616,76,"Old Gate",Khemarat,Thailand,34170
640,727,53,Hayes,Chittagong,Bangladesh,4000
641,37,56,Thierer,Phatthaya,Thailand,72160
642,953,154,Surrey,Netrakona,Bangladesh,5405
643,473,169,Straubel,"Khlong Yai",Thailand,23110
644,739,104,Fairfield,Panaoti,Nepal,NULL
645,347,160,Harper,"Nong Yasai",Thailand,72240
646,424,178,Sunfield,Morrelgonj,Bangladesh,3807
647,659,155,Independence,Ra-ngae,Thailand,96130
648,277,31,Loomis,"Bang Bua Thong",Thailand,11110
649,358,5,Fieldstone,Phichit,Thailand,18000
650,125,80,Redwing,"Kut Rang",Thailand,81140
651,453,197,Fieldstone,Nan,Thailand,55000
652,119,171,Hoffman,"Det Udom",Thailand,34160
653,786,190,East,Mayo,Thailand,94140
654,222,32,Vidon,Surin,Thailand,95140
655,233,162,"Stone Corner",Pātan,Nepal,NULL
656,605,29,Colorado,"Kao Liao",Thailand,60230
657,156,152,Maywood,"Na Kae",Thailand,48130
658,388,96,Hintze,Lamduan,Thailand,76000
659,359,102,Hintze,Kathu,Thailand,83120
660,370,10,Calypso,"Khu Khan",Thailand,56110
661,679,34,Morning,Narail,Bangladesh,5260
662,776,132,Dixon,"Pak Chom",Thailand,42150
663,259,14,"Forest Dale",Kathmandu,Nepal,NULL
664,953,191,Lien,"Kaeng Khro",Thailand,36150
665,768,80,Lien,"Wang Nam Yen",Thailand,27120
666,906,22,Hazelcrest,"Wang Sombun",Thailand,27250
667,434,77,Badeau,"Don Tan",Thailand,49120
668,286,5,Schlimgen,"Su-ngai Kolok",Thailand,96120
669,375,77,Gulseth,"Phu Kradueng",Thailand,42180
670,334,138,Oakridge,"Pathum Rat",Thailand,45190
671,460,62,Hallows,"Bang Klam",Thailand,90110
672,918,187,Bayside,"Pak Phayun",Thailand,93120
673,719,159,Scoville,"Nong Kung Si",Thailand,46220
674,184,99,Waxwing,"Chian Yai",Thailand,80190
675,53,168,Claremont,"Prachin Buri",Thailand,31110
676,299,150,Dennis,Phichai,Thailand,53120
677,139,74,"Twin Pines",Ratchathewi,Thailand,11130
678,285,140,Tomscot,"Bang Kruai",Thailand,11130
679,981,39,Coleman,"Bang Ban",Thailand,13250
680,742,111,"Bunker Hill","Kao Liao",Thailand,60230
681,285,191,David,"Dan Makham Tia",Thailand,71260
682,186,54,Lillian,"San Pa Tong",Thailand,50120
683,836,159,Sommers,"Tha Yang",Thailand,76130
684,319,149,Carberry,Kantharalak,Thailand,33110
685,763,7,Garrison,Ratchasan,Thailand,70150
686,145,67,Rowland,"Mae Hi",Thailand,58130
687,460,132,Carey,"Mae Fa Luang",Thailand,25190
688,506,122,Swallow,"Pa Phayom",Thailand,91130
689,711,4,Daystar,"Thap Khlo",Thailand,71000
690,277,49,"Holy Cross",Sarankhola,Bangladesh,9330
691,332,65,Mallory,"Hat Yai",Thailand,90110
692,9,72,Hanover,Mādārīpur,Bangladesh,7904
693,935,37,Monterey,"Na Muen",Thailand,55180
694,695,122,Eastwood,Manikchari,Bangladesh,7460
695,953,147,Duke,"Kae Dam",Thailand,44190
696,669,82,Butterfield,"Pār Naogaon",Bangladesh,9202
697,515,105,Duke,Sukhirin,Thailand,96190
698,544,69,"Maple Wood","Khok Charoen",Thailand,15250
699,912,151,Miller,"Mae Ramat",Thailand,63140
700,567,117,Talmadge,"Nong Yasai",Thailand,72240
701,63,106,Merchant,Pakham,Thailand,92000
702,659,37,Dorton,"Nong Khai",Thailand,48130
703,912,199,Harper,"Non Sang",Thailand,39140
704,588,17,Randy,"Phra Pradaeng",Thailand,10130
705,558,74,Union,"Sawang Daen Din",Thailand,47110
706,550,118,"Fair Oaks","Lam Sonthi",Thailand,71160
707,697,200,Sunbrook,"Bang Pa-in",Thailand,13160
708,447,43,Eagan,"Ban Bueng",Thailand,43210
709,253,10,Hallows,"Sam Roi Yot",Thailand,30220
710,807,151,Laurel,"Na Klang",Thailand,39170
711,550,122,Lukken,"Ban Thai Tan",Thailand,14000
712,464,37,"Hollow Ridge",Nabīnagar,Bangladesh,3410
713,423,93,Pawling,"Nakhon Phanom",Thailand,48000
714,977,91,Harper,"Nong Khae",Thailand,18140
715,568,52,Beilfuss,"Bueng Samakkhi",Thailand,34350
716,787,141,Thierer,"Chon Daen",Thailand,67150
717,154,130,"Twin Pines","Watthana Nakhon",Thailand,34230
718,971,161,Corscot,Pattani,Thailand,57000
719,281,177,Southridge,"Wang Sai Phun",Thailand,66180
720,545,27,Mcguire,"Phanat Nikhom",Thailand,20140
721,355,86,Calypso,Bhola,Bangladesh,3633
722,387,149,Prentice,"Lang Suan",Thailand,86110
723,362,162,Longview,Sida,Thailand,30430
724,965,55,Miller,"Den Chai",Thailand,54140
725,257,143,"Pine View","Nong Hin",Thailand,10250
726,938,84,Dixon,"Khon Buri",Thailand,30250
727,982,160,Hallows,Mādārīpur,Bangladesh,7904
728,877,183,2nd,"Thung Yang Daeng",Thailand,46000
729,510,26,Florence,Ra-ngae,Thailand,96130
730,165,91,Quincy,"Nakhon Pathom",Thailand,40140
731,352,193,Graceland,"Kaset Wisai",Thailand,45150
732,799,134,Kenwood,"Phra Khanong",Thailand,10260
733,994,81,Acker,Loei,Thailand,42000
734,2,32,Warbler,Sukhirin,Thailand,96190
735,705,159,Laurel,Sanom,Thailand,91130
736,904,134,Lindbergh,Kirtipur,Nepal,NULL
737,45,22,Truax,Birātnagar,Nepal,NULL
738,616,49,Oriole,"Ban Lam Luk Ka",Thailand,31120
739,235,158,Morrow,"Su-ngai Kolok",Thailand,96120
740,764,66,Marquette,Chanthaburi,Thailand,24120
741,701,104,Myrtle,"Nikhom Kham Soi",Thailand,49130
742,862,136,Susan,Dipayal,Nepal,NULL
743,254,165,Union,Chanuman,Thailand,34260
744,891,173,Eastlawn,Mymensingh,Bangladesh,3526
745,834,90,Pearson,"Roi Et",Thailand,45000
746,539,199,Manufacturers,"Yan Nawa",Thailand,10130
747,573,154,Stang,Phrae,Thailand,54130
748,289,56,Sachtjen,"Phra Nakhon Si Ayutthaya",Thailand,13120
749,182,79,Schiller,Khong,Thailand,30260
750,138,10,"Pepper Wood","Chaloem Phra Kiat",Thailand,40250
751,495,139,Goodland,"Ban Na",Thailand,26110
752,450,22,Gulseth,Comilla,Bangladesh,1981
753,420,21,Hoepker,Sapphaya,Thailand,17140
754,690,146,"Golf View","Phu Kradueng",Thailand,42180
755,713,90,"American Ash","Ban Chalong",Thailand,66110
756,176,11,Eliot,"Pueai Noi",Thailand,40340
757,413,30,Dayton,Ratchaburi,Thailand,84180
758,237,65,"Norway Maple",Cho-airong,Thailand,96180
759,412,118,Goodland,"Ban Lam Luk Ka",Thailand,77140
760,626,155,Kensington,Narsingdi,Bangladesh,1605
761,477,155,Farragut,Song,Thailand,54120
762,167,122,Miller,"Phanom Phrai",Thailand,24140
763,431,164,"Meadow Vale","Sam Phran",Thailand,73110
764,18,67,Sunbrook,Ubonratana,Thailand,31110
765,427,46,Arapahoe,Pokhara,Nepal,NULL
766,112,171,Kensington,"Wang Saphung",Thailand,42130
767,234,9,Elmside,Narail,Bangladesh,5260
768,939,172,Starling,"Mueang Suang",Thailand,45220
769,989,148,Moulton,"Chok Chai",Thailand,30190
770,157,191,Clemons,"Pom Prap Sattru Phai",Thailand,10100
771,727,174,Sheridan,"Nakhon Pathom",Thailand,40140
772,354,45,Pawling,Sarishābāri,Bangladesh,2051
773,887,200,Sheridan,"Roi Et",Thailand,45000
774,43,38,Forster,"Ban Phaeo",Thailand,74120
775,802,175,"Lighthouse Bay","Pom Prap Sattru Phai",Thailand,10100
776,794,189,Dakota,"Chiang Khan",Thailand,42110
777,541,103,Mesta,"Pom Prap Sattru Phai",Thailand,10100
778,923,171,Vernon,"Kaset Sombun",Thailand,36120
779,960,28,Annamark,Sarishābāri,Bangladesh,2051
780,492,34,Rieder,"Waeng Yai",Thailand,40330
781,391,59,Starling,"Nam Som",Thailand,41210
782,34,38,Manitowish,Tāngāil,Bangladesh,3062
783,599,95,Judy,"Si That",Thailand,41230
784,999,141,Jana,"Nakhon Chai Si",Thailand,40160
785,218,174,Veith,Chhātak,Bangladesh,4312
786,416,148,"High Crossing","Tak Bai",Thailand,96110
787,58,41,Elka,"Si Bun Rueang",Thailand,39180
788,387,80,Debra,"Phra Pradaeng",Thailand,10130
789,506,111,Manufacturers,"Khao Wong",Thailand,46160
790,746,70,Namekagon,"Khun Han",Thailand,33150
791,164,84,Farwell,"Bueng Kan",Thailand,34140
792,412,48,Hanson,Bherāmāra,Bangladesh,7042
793,614,52,Anzinger,"Mae Lan",Thailand,94180
794,152,183,Knutson,"Tha Muang",Thailand,71110
795,553,168,"Red Cloud",Prachamtakham,Thailand,25130
796,37,65,Ridgeway,Kālīganj,Bangladesh,1910
797,543,59,"Crest Line",Bangkok,Thailand,11130
798,440,196,Myrtle,Sylhet,Bangladesh,3109
799,194,92,Basil,"Ban Takhun",Thailand,34260
800,503,120,Basil,"Phlapphla Chai",Thailand,10800
801,917,23,Orin,Pābna,Bangladesh,6602
802,224,65,Hintze,Cha-am,Thailand,76120
803,776,16,"Hollow Ridge","Tak Bai",Thailand,96110
804,673,145,Melvin,"Chaloem Phra Kiat",Thailand,40250
805,528,65,Debra,"Lat Yao",Thailand,60150
806,309,58,Warner,Ranong,Thailand,85000
807,878,34,Fremont,"Phayakkhaphum Phisai",Thailand,44110
808,124,198,Summerview,Banepa,Nepal,NULL
809,797,44,Mendota,Gulariyā,Nepal,NULL
810,993,91,Vera,"Pa Tio",Thailand,35150
811,285,53,Dottie,Pirojpur,Bangladesh,1811
812,684,21,Lukken,"Chaloem Phra Kiat",Thailand,30370
813,598,82,Waywood,"Pho Thong",Thailand,14120
814,319,129,"Crescent Oaks","Nong Khai",Thailand,48140
815,661,80,Carpenter,"Mae Charim",Thailand,55170
816,395,33,Merrick,Khagrachhari,Bangladesh,7407
817,547,99,"Glacier Hill","Tha Muang",Thailand,71110
818,400,33,Kim,"Bang Lamung",Thailand,20150
819,839,100,Lien,Dhangarhi,Nepal,NULL
820,809,190,Sommers,"Krong Pi Nang",Thailand,86220
821,36,174,Cambridge,"Phra Phutthabat",Thailand,18120
822,249,119,Northfield,Bharatpur,Nepal,NULL
823,518,132,Bluejay,"Bang Kho Laem",Thailand,10130
824,562,77,Macpherson,"Wang Sai Phun",Thailand,66180
825,223,72,Farmco,"Chiang Rai",Thailand,57000
826,616,155,Sycamore,Chatuchak,Thailand,64180
827,539,190,Dapin,Seka,Thailand,43150
828,948,98,Bowman,"Nakhon Luang",Thailand,13260
829,363,144,Nelson,"Ban Talat Nua",Thailand,83120
830,80,120,Hanson,"Samut Songkhram",Thailand,75110
831,843,177,Elgar,"Bang Sao Thong",Thailand,10560
832,358,34,"New Castle","Nakhon Sawan",Thailand,60000
833,197,108,Dayton,"Kosamphi Nakhon",Thailand,90190
834,101,110,"Meadow Vale",Phutthaisong,Thailand,31120
835,307,169,"Summer Ridge",Mayo,Thailand,94140
836,722,36,"Lakewood Gardens","Kaset Wisai",Thailand,45150
837,89,11,Sauthoff,"Nong Kung Si",Thailand,46220
838,338,144,Shasta,"Mae Lan",Thailand,94180
839,711,133,Burrows,"Ban Kruat",Thailand,31180
840,348,125,Bashford,Rayong,Thailand,21000
841,407,11,Arrowood,Muktāgācha,Bangladesh,2210
842,866,114,Comanche,"Si Khoraphum",Thailand,67160
843,77,103,Mesta,Sawaengha,Thailand,14150
844,18,166,Green,"Khueang Nai",Thailand,64150
845,964,126,Lunder,"Waeng Yai",Thailand,40330
846,81,61,Logan,Sātkania,Bangladesh,4398
847,489,12,Judy,"Kao Liao",Thailand,60230
848,946,160,Emmet,"Nikhom Kham Soi",Thailand,49130
849,591,22,Eastlawn,"Ban Talat Yai",Thailand,83120
850,20,11,Hanover,"Bang Lamung",Thailand,20150
851,55,134,Johnson,Wichit,Thailand,83120
852,137,63,"Norway Maple","Saba Yoi",Thailand,67140
853,695,125,Blackbird,"Phu Luang",Thailand,42230
854,745,150,Katie,"Bang Len",Thailand,73130
855,806,164,Melvin,"Ban Khok",Thailand,53180
856,787,73,Florence,"Sao Hai",Thailand,18160
857,16,101,Southridge,Parbatipur,Bangladesh,5250
858,873,107,Steensland,Jomsom,Nepal,NULL
859,42,105,Blackbird,Ongkharak,Thailand,55160
860,51,178,Harbort,Bogra,Bangladesh,4520
861,114,110,Sunnyside,"Ban Ratsada",Thailand,83120
862,459,148,Bunting,"Sila Lat",Thailand,36210
863,121,147,Mcbride,"Bo Phloi",Thailand,71160
864,840,126,Dakota,"Bang Rakam",Thailand,65140
865,678,9,Bonner,Buriram,Thailand,31180
866,701,46,Arizona,"Wang Chan",Thailand,21210
867,249,7,Harper,Bāglung,Nepal,NULL
868,639,62,Service,"Sap Yai",Thailand,16150
869,799,54,Pond,"Si Khoraphum",Thailand,67160
870,857,105,Steensland,"Phu Kam Yao",Thailand,23110
871,108,96,Pawling,Kirtipur,Nepal,NULL
872,563,80,Lawn,"Kabin Buri",Thailand,25110
873,455,157,Crownhardt,"San Pa Tong",Thailand,50120
874,344,86,Pearson,Song,Thailand,54120
875,112,117,Schurz,Ilām,Nepal,NULL
876,733,77,Blaine,Aranyaprathet,Thailand,27120
877,302,140,Farwell,"Khon San",Thailand,36180
878,657,65,"Forest Dale",Sadao,Thailand,45000
879,216,177,Oxford,"Thung Song",Thailand,80110
880,441,161,Helena,"Kaeng Khoi",Thailand,18110
881,992,175,Fremont,"Ko Samui",Thailand,84140
882,643,156,"Red Cloud",Krabi,Thailand,58120
883,606,9,Carey,"Bang Bon",Thailand,10150
884,726,27,Lukken,"Chiang Mai",Thailand,50000
885,426,10,Arrowood,"Tha Mai",Thailand,22120
886,861,148,Waywood,Songkhla,Thailand,30280
887,653,59,Mifflin,"Pathum Thani",Thailand,53140
888,565,153,Washington,Banepa,Nepal,NULL
889,718,16,Browning,"Bang Rakam",Thailand,65140
890,942,101,Hoffman,"Nakhon Phanom",Thailand,48000
891,473,38,Porter,"Nong Muang Khai",Thailand,12140
892,347,157,Moland,"Sam Ngam",Thailand,66140
893,399,143,Sauthoff,Phichit,Thailand,18000
894,824,186,Haas,"Huai Mek",Thailand,46170
895,860,35,Westridge,Thoen,Thailand,52160
896,118,182,Mayer,"Chaloem Phra Kiat",Thailand,40250
897,589,189,Dawn,"Mancha Khiri",Thailand,40160
898,686,83,Riverside,"Pathum Thani",Thailand,90110
899,524,67,Kinsman,"Fak Tha",Thailand,53160
900,336,119,"Fair Oaks","Khon Kaen",Thailand,39170
901,794,88,North,"Si Racha",Thailand,20110
902,636,83,Knutson,Seka,Thailand,43150
903,768,136,Becker,"Ban Na",Thailand,26110
904,889,180,Rutledge,"Sam Phran",Thailand,73110
905,426,138,Daystar,Yaring,Thailand,94150
906,241,193,Mosinee,"Khun Han",Thailand,33150
907,457,184,Maywood,Feni,Bangladesh,8700
908,187,197,Village,"Ban Mai",Thailand,50260
909,453,93,Victoria,"Bang Sai",Thailand,13270
910,400,159,Walton,"Char Bhadrāsan",Bangladesh,7933
911,650,102,Havey,"Nakhon Nayok",Thailand,26120
912,580,79,Eastwood,"Sap Yai",Thailand,16150
913,494,166,Washington,"Maulavi Bāzār",Bangladesh,3253
914,669,27,"Old Gate",Chittagong,Bangladesh,4000
915,42,38,Quincy,"Bang Ban",Thailand,13250
916,702,119,Hanover,"Chumphon Buri",Thailand,71180
917,489,72,Pierstorff,"Tha Tako",Thailand,60160
918,362,97,Farwell,Malangwa,Nepal,NULL
919,248,5,"Meadow Vale","Lat Lum Kaeo",Thailand,12140
920,437,69,Crowley,"Bang Nam Priao",Thailand,44130
921,677,50,"Old Gate",Khong,Thailand,30260
922,985,69,Anthes,Kuchinarai,Thailand,46110
923,370,145,Algoma,Krabi,Thailand,58120
924,152,46,Muir,"Su-ngai Kolok",Thailand,96120
925,502,14,Namekagon,"Wiang Chiang Rung",Thailand,57210
926,258,175,Gateway,"Kut Chum",Thailand,18190
927,488,106,Karstens,"Ban Lam Luk Ka",Thailand,31120
928,520,102,Cody,"Suphan Buri",Thailand,44130
929,832,1,Brown,"Ban Chang",Thailand,21130
930,630,31,Warrior,"Yang Chum Noi",Thailand,33190
931,712,57,Mallard,"Wang Noi",Thailand,13170
932,230,120,Miller,"Soeng Sang",Thailand,30330
933,814,66,"Blue Bill Park",Betong,Thailand,95110
934,331,147,Judy,"Na Yong",Thailand,92170
935,757,162,Kennedy,Khāndbāri,Nepal,NULL
936,935,91,"Crescent Oaks",Trat,Thailand,46160
937,511,195,Pierstorff,"Chaloem Phra Kiat",Thailand,95120
938,407,107,Union,"Nakhon Sawan",Thailand,60000
939,647,102,Fisk,"Bueng Samakkhi",Thailand,34350
940,334,141,Fairfield,"Pak Phanang",Thailand,80140
941,959,95,Ryan,"Ban Ko Lan",Thailand,48180
942,625,166,"Little Fleur","Ban Selaphum",Thailand,51130
943,454,194,Stuart,"Mueang Suang",Thailand,45220
944,317,134,Manley,Sarishābāri,Bangladesh,2051
945,378,26,Continental,Dhangarhi,Nepal,NULL
946,991,89,Merchant,"Thung Song",Thailand,80110
947,238,126,Reindahl,"Ban Haet",Thailand,10700
948,914,47,Homewood,"Sa Bot",Thailand,15240
949,558,16,Victoria,Chumphon,Thailand,30440
950,334,10,Prentice,"Ban Nong Wua So",Thailand,21140
951,81,106,Gateway,"Nong Khaem",Thailand,10160
952,729,60,Spaight,"Phra Pradaeng",Thailand,10130
953,493,172,Westport,"Phanna Nikhom",Thailand,47130
954,311,14,"Oak Valley","Lat Yao",Thailand,60150
955,302,133,Kingsford,"Bueng Kan",Thailand,34140
956,14,120,Spohn,Prachamtakham,Thailand,25130
957,151,143,"Green Ridge","Nong Khai",Thailand,48140
958,795,115,Hoffman,"Na Chaluai",Thailand,34280
959,342,199,"Holy Cross","Bang Racham",Thailand,16130
960,118,73,Nobel,"Nong Don",Thailand,50320
961,1000,47,Erie,"Si Satchanalai",Thailand,64130
962,819,104,"Buena Vista",Gafargaon,Bangladesh,2234
963,930,56,Mayfield,Bangkok,Thailand,11130
964,595,184,"Saint Paul",Dohār,Bangladesh,1330
965,954,108,Kennedy,Kālia,Bangladesh,7521
966,501,35,Marquette,"Bang Racham",Thailand,16130
967,14,74,Summerview,Nepalgunj,Nepal,NULL
968,577,27,Gateway,"Bueng Kum",Thailand,10240
969,745,178,Luster,"Ban Haet",Thailand,10700
970,413,52,Kingsford,"Wiset Chaichan",Thailand,84280
971,493,196,Sunnyside,"Uthai Thani",Thailand,81140
972,827,187,Hanover,Kālīganj,Bangladesh,1910
973,601,181,Dexter,"Kaeng Khoi",Thailand,18110
974,911,39,Pennsylvania,Mehendiganj,Bangladesh,6431
975,962,86,Debs,Yasothon,Thailand,35000
976,656,171,Division,"Phra Pradaeng",Thailand,10130
977,218,30,Kropf,"Krasae Sin",Thailand,90270
978,739,51,Linden,Seka,Thailand,43150
979,943,65,Daystar,"Chon Daen",Thailand,67150
980,653,33,Scoville,Yala,Thailand,95000
981,536,111,Grim,"Bhātpāra Abhaynagar",Bangladesh,7461
982,927,54,Clarendon,"Suphan Buri",Thailand,44130
983,962,190,Welch,Cha-am,Thailand,76120
984,612,24,Lerdahl,"Bhātpāra Abhaynagar",Bangladesh,7461
985,407,44,Melby,"Tak Bai",Thailand,96110
986,331,19,Dixon,Dohār,Bangladesh,1330
987,584,121,Brown,Ongkharak,Thailand,55160
988,894,23,Victoria,"Sap Yai",Thailand,16150
989,674,144,Summerview,Sawaengha,Thailand,14150
990,408,75,Stang,Thākurgaon,Bangladesh,1341
991,338,140,"Glacier Hill","Lap Lae",Thailand,65160
992,556,170,"Lake View","Si Somdet",Thailand,95130
993,616,73,Stephen,"Si Satchanalai",Thailand,64130
994,816,73,Canary,"Nam Phong",Thailand,40140
995,873,138,Larry,"Thawi Watthana",Thailand,62180
996,594,24,"Summer Ridge",Saraburi,Thailand,18190
997,73,120,Mccormick,"Chok Chai",Thailand,30190
998,638,64,Butternut,"Prachuap Khiri Khan",Thailand,77120
999,225,10,Schmedeman,"Phon Phisai",Thailand,43120
1000,176,143,Monterey,"Bang Klam",Thailand,90110
